start=new Date('2022-05-28T00:00:00.000Z').valueOf();
sats=[{"RCS_SIZE":"LARGE","ARG_OF_PERICENTER":"53.1443","COUNTRY_CODE":"US","DECAY_DATE":null,"LAUNCH_DATE":"2020-03-18","APOAPSIS":"548.578","BSTAR":"-0.00011973000000","TLE_LINE2":"2 45380  53.0564 231.3240 0001897  53.1443 306.9720 15.06383582121692","MEAN_ELEMENT_THEORY":"SGP4","GP_ID":"204655583","TIME_SYSTEM":"UTC","MEAN_MOTION_DDOT":"0.0000000000000","EPHEMERIS_TYPE":"0","MEAN_MOTION_DOT":"-0.00002064","INCLINATION":"53.0564","ECCENTRICITY":"0.00018970","CLASSIFICATION_TYPE":"U","EPOCH":"2022-05-27T12:58:10.340544","OBJECT_NAME":"STARLINK-1207","PERIOD":"95.593","FILE":"3467490","REV_AT_EPOCH":"12169","OBJECT_ID":"2020-019W","PERIAPSIS":"545.950","REF_FRAME":"TEME","SITE":"AFETR","NORAD_CAT_ID":"45380","ELEMENT_SET_NO":"999","TLE_LINE1":"1 45380U 20019W   22147.54039746 -.00002064  00000-0 -11973-3 0  9994","MEAN_MOTION":"15.06383582","SEMIMAJOR_AXIS":"6925.399","MEAN_ANOMALY":"306.9720","CENTER_NAME":"EARTH","RA_OF_ASC_NODE":"231.3240","OBJECT_TYPE":"PAYLOAD"},{"MEAN_MOTION_DDOT":"0.0000000000000","GP_ID":"204676659","TIME_SYSTEM":"UTC","ECCENTRICITY":"0.00013270","INCLINATION":"53.0554","MEAN_MOTION_DOT":"0.00001201","EPHEMERIS_TYPE":"0","COUNTRY_CODE":"US","ARG_OF_PERICENTER":"80.5468","RCS_SIZE":"LARGE","MEAN_ELEMENT_THEORY":"SGP4","TLE_LINE2":"2 45381  53.0554 231.2785 0001327  80.5468 279.5671 15.06395703121681","APOAPSIS":"548.146","BSTAR":"0.00009954700000","LAUNCH_DATE":"2020-03-18","DECAY_DATE":null,"CENTER_NAME":"EARTH","MEAN_ANOMALY":"279.5671","SEMIMAJOR_AXIS":"6925.362","OBJECT_TYPE":"PAYLOAD","RA_OF_ASC_NODE":"231.2785","REV_AT_EPOCH":"12168","FILE":"3467585","OBJECT_NAME":"STARLINK-1258","PERIOD":"95.592","EPOCH":"2022-05-27T13:14:04.081632","CLASSIFICATION_TYPE":"U","TLE_LINE1":"1 45381U 20019X   22147.55143613  .00001201  00000-0  99547-4 0  9999","ELEMENT_SET_NO":"999","MEAN_MOTION":"15.06395703","NORAD_CAT_ID":"45381","SITE":"AFETR","REF_FRAME":"TEME","OBJECT_ID":"2020-019X","PERIAPSIS":"546.308"},{"TIME_SYSTEM":"UTC","GP_ID":"204676905","MEAN_MOTION_DDOT":"0.0000000000000","INCLINATION":"53.0542","ECCENTRICITY":"0.00015480","EPHEMERIS_TYPE":"0","MEAN_MOTION_DOT":"-0.00001396","ARG_OF_PERICENTER":"74.8599","COUNTRY_CODE":"US","RCS_SIZE":"LARGE","APOAPSIS":"548.359","BSTAR":"-0.00007489500000","TLE_LINE2":"2 45382  53.0542 231.0912 0001548  74.8599 285.2561 15.06375917121514","MEAN_ELEMENT_THEORY":"SGP4","DECAY_DATE":null,"LAUNCH_DATE":"2020-03-18","MEAN_ANOMALY":"285.2561","CENTER_NAME":"EARTH","SEMIMAJOR_AXIS":"6925.422","OBJECT_TYPE":"PAYLOAD","RA_OF_ASC_NODE":"231.0912","PERIOD":"95.594","OBJECT_NAME":"STARLINK-1264","FILE":"3467585","REV_AT_EPOCH":"12151","CLASSIFICATION_TYPE":"U","EPOCH":"2022-05-27T14:17:47.271264","ELEMENT_SET_NO":"999","TLE_LINE1":"1 45382U 20019Y   22147.59568601 -.00001396  00000-0 -74895-4 0  9998","MEAN_MOTION":"15.06375917","OBJECT_ID":"2020-019Y","PERIAPSIS":"546.215","REF_FRAME":"TEME","SITE":"AFETR","NORAD_CAT_ID":"45382"},{"RA_OF_ASC_NODE":"231.0214","OBJECT_TYPE":"PAYLOAD","SEMIMAJOR_AXIS":"6925.380","CENTER_NAME":"EARTH","MEAN_ANOMALY":"281.2471","NORAD_CAT_ID":"45383","REF_FRAME":"TEME","SITE":"AFETR","PERIAPSIS":"546.401","OBJECT_ID":"2020-019Z","MEAN_MOTION":"15.06389878","TLE_LINE1":"1 45383U 20019Z   22147.61042225  .00001340  00000-0  10883-3 0  9994","ELEMENT_SET_NO":"999","EPOCH":"2022-05-27T14:39:00.482400","CLASSIFICATION_TYPE":"U","REV_AT_EPOCH":"12169","FILE":"3468079","OBJECT_NAME":"STARLINK-1266","PERIOD":"95.593","MEAN_MOTION_DOT":"0.00001340","EPHEMERIS_TYPE":"0","ECCENTRICITY":"0.00012180","INCLINATION":"53.0552","MEAN_MOTION_DDOT":"0.0000000000000","GP_ID":"204712625","TIME_SYSTEM":"UTC","LAUNCH_DATE":"2020-03-18","DECAY_DATE":null,"MEAN_ELEMENT_THEORY":"SGP4","TLE_LINE2":"2 45383  53.0552 231.0214 0001218  78.8655 281.2471 15.06389878121698","APOAPSIS":"548.088","BSTAR":"0.00010883000000","RCS_SIZE":"LARGE","COUNTRY_CODE":"US","ARG_OF_PERICENTER":"78.8655"},{"ARG_OF_PERICENTER":"69.0738","COUNTRY_CODE":"US","RCS_SIZE":"LARGE","APOAPSIS":"548.360","BSTAR":"0.00006033000000","TLE_LINE2":"2 45384  53.0554 231.0626 0001674  69.0738 291.0430 15.06404181121697","MEAN_ELEMENT_THEORY":"SGP4","DECAY_DATE":null,"LAUNCH_DATE":"2020-03-18","TIME_SYSTEM":"UTC","GP_ID":"204712875","MEAN_MOTION_DDOT":"0.0000000000000","INCLINATION":"53.0554","ECCENTRICITY":"0.00016740","EPHEMERIS_TYPE":"0","MEAN_MOTION_DOT":"0.00000617","OBJECT_NAME":"STARLINK-1267","PERIOD":"95.592","FILE":"3468079","REV_AT_EPOCH":"12169","CLASSIFICATION_TYPE":"U","EPOCH":"2022-05-27T14:21:41.957856","ELEMENT_SET_NO":"999","TLE_LINE1":"1 45384U 20019AA  22147.59840229  .00000617  00000-0  60330-4 0  9991","MEAN_MOTION":"15.06404181","PERIAPSIS":"546.041","OBJECT_ID":"2020-019AA","REF_FRAME":"TEME","SITE":"AFETR","NORAD_CAT_ID":"45384","MEAN_ANOMALY":"291.0430","CENTER_NAME":"EARTH","SEMIMAJOR_AXIS":"6925.336","OBJECT_TYPE":"PAYLOAD","RA_OF_ASC_NODE":"231.0626"},{"RA_OF_ASC_NODE":"230.7597","OBJECT_TYPE":"PAYLOAD","SEMIMAJOR_AXIS":"6925.347","MEAN_ANOMALY":"288.8117","CENTER_NAME":"EARTH","PERIAPSIS":"546.248","OBJECT_ID":"2020-019AC","SITE":"AFETR","REF_FRAME":"TEME","NORAD_CAT_ID":"45386","ELEMENT_SET_NO":"999","TLE_LINE1":"1 45386U 20019AC  22147.66938499 -.00000039  00000-0  16266-4 0  9996","MEAN_MOTION":"15.06400632","CLASSIFICATION_TYPE":"U","EPOCH":"2022-05-27T16:03:54.863136","OBJECT_NAME":"STARLINK-1272","PERIOD":"95.592","FILE":"3468079","REV_AT_EPOCH":"12170","EPHEMERIS_TYPE":"0","MEAN_MOTION_DOT":"-0.00000039","INCLINATION":"53.0542","ECCENTRICITY":"0.00013910","GP_ID":"204714123","TIME_SYSTEM":"UTC","MEAN_MOTION_DDOT":"0.0000000000000","DECAY_DATE":null,"LAUNCH_DATE":"2020-03-18","APOAPSIS":"548.175","BSTAR":"0.00001626600000","TLE_LINE2":"2 45386  53.0542 230.7597 0001391  71.3023 288.8117 15.06400632121703","MEAN_ELEMENT_THEORY":"SGP4","RCS_SIZE":"LARGE","ARG_OF_PERICENTER":"71.3023","COUNTRY_CODE":"US"},{"APOAPSIS":"548.425","BSTAR":"-0.00017442000000","TLE_LINE2":"2 45387  53.0547 231.5420 0001698  74.5388 285.5788 15.06388411121676","MEAN_ELEMENT_THEORY":"SGP4","DECAY_DATE":null,"LAUNCH_DATE":"2020-03-18","ARG_OF_PERICENTER":"74.5388","COUNTRY_CODE":"US","RCS_SIZE":"LARGE","ECCENTRICITY":"0.00016980","INCLINATION":"53.0547","EPHEMERIS_TYPE":"0","MEAN_MOTION_DOT":"-0.00002878","TIME_SYSTEM":"UTC","GP_ID":"204676405","MEAN_MOTION_DDOT":"0.0000000000000","TLE_LINE1":"1 45387U 20019AD  22147.49247469 -.00002878  00000-0 -17442-3 0  9998","MEAN_MOTION":"15.06388411","ELEMENT_SET_NO":"999","PERIAPSIS":"546.073","OBJECT_ID":"2020-019AD","SITE":"AFETR","REF_FRAME":"TEME","NORAD_CAT_ID":"45387","OBJECT_NAME":"STARLINK-1274","PERIOD":"95.593","FILE":"3467585","REV_AT_EPOCH":"12167","CLASSIFICATION_TYPE":"U","EPOCH":"2022-05-27T11:49:09.813216","OBJECT_TYPE":"PAYLOAD","RA_OF_ASC_NODE":"231.5420","MEAN_ANOMALY":"285.5788","CENTER_NAME":"EARTH","SEMIMAJOR_AXIS":"6925.384"},{"COUNTRY_CODE":"US","ARG_OF_PERICENTER":"66.7928","RCS_SIZE":"LARGE","MEAN_ELEMENT_THEORY":"SGP4","TLE_LINE2":"2 45388  53.0548 250.7858 0001443  66.7928 293.3213 15.06402062121418","APOAPSIS":"548.207","BSTAR":"0.00033084000000","LAUNCH_DATE":"2020-03-18","DECAY_DATE":null,"MEAN_MOTION_DDOT":"0.0000000000000","GP_ID":"204713125","TIME_SYSTEM":"UTC","ECCENTRICITY":"0.00014430","INCLINATION":"53.0548","MEAN_MOTION_DOT":"0.00004650","EPHEMERIS_TYPE":"0","REV_AT_EPOCH":"12141","FILE":"3468079","OBJECT_NAME":"STARLINK-1280","PERIOD":"95.592","EPOCH":"2022-05-27T15:50:39.469056","CLASSIFICATION_TYPE":"U","MEAN_MOTION":"15.06402062","TLE_LINE1":"1 45388U 20019AE  22147.66017904  .00004650  00000-0  33084-3 0  9995","ELEMENT_SET_NO":"999","NORAD_CAT_ID":"45388","SITE":"AFETR","REF_FRAME":"TEME","OBJECT_ID":"2020-019AE","PERIAPSIS":"546.208","CENTER_NAME":"EARTH","MEAN_ANOMALY":"293.3213","SEMIMAJOR_AXIS":"6925.342","OBJECT_TYPE":"PAYLOAD","RA_OF_ASC_NODE":"250.7858"},{"FILE":"3467585","PERIOD":"95.592","OBJECT_NAME":"STARLINK-1283","REV_AT_EPOCH":"12168","CLASSIFICATION_TYPE":"U","EPOCH":"2022-05-27T12:10:22.269216","TLE_LINE1":"1 45389U 20019AF  22147.50720219 -.00000574  00000-0 -19637-4 0  9991","MEAN_MOTION":"15.06395578","ELEMENT_SET_NO":"999","PERIAPSIS":"546.031","OBJECT_ID":"2020-019AF","NORAD_CAT_ID":"45389","REF_FRAME":"TEME","SITE":"AFETR","MEAN_ANOMALY":"320.7027","CENTER_NAME":"EARTH","SEMIMAJOR_AXIS":"6925.362","OBJECT_TYPE":"PAYLOAD","RA_OF_ASC_NODE":"231.4864","ARG_OF_PERICENTER":"39.4087","COUNTRY_CODE":"US","RCS_SIZE":"LARGE","APOAPSIS":"548.423","BSTAR":"-0.00001963700000","MEAN_ELEMENT_THEORY":"SGP4","TLE_LINE2":"2 45389  53.0564 231.4864 0001727  39.4087 320.7027 15.06395578121688","DECAY_DATE":null,"LAUNCH_DATE":"2020-03-18","GP_ID":"204677401","TIME_SYSTEM":"UTC","MEAN_MOTION_DDOT":"0.0000000000000","ECCENTRICITY":"0.00017270","INCLINATION":"53.0564","EPHEMERIS_TYPE":"0","MEAN_MOTION_DOT":"-0.00000574"},{"TLE_LINE1":"1 45390U 20019AG  22147.61409710 -.00002059  00000-0 -11935-3 0  9997","MEAN_MOTION":"15.06394477","ELEMENT_SET_NO":"999","PERIAPSIS":"545.961","OBJECT_ID":"2020-019AG","NORAD_CAT_ID":"45390","REF_FRAME":"TEME","SITE":"AFETR","FILE":"3468079","PERIOD":"95.592","OBJECT_NAME":"STARLINK-1284","REV_AT_EPOCH":"12169","CLASSIFICATION_TYPE":"U","EPOCH":"2022-05-27T14:44:17.989440","OBJECT_TYPE":"PAYLOAD","RA_OF_ASC_NODE":"230.9946","MEAN_ANOMALY":"314.4750","CENTER_NAME":"EARTH","SEMIMAJOR_AXIS":"6925.365","APOAPSIS":"548.500","BSTAR":"-0.00011935000000","MEAN_ELEMENT_THEORY":"SGP4","TLE_LINE2":"2 45390  53.0533 230.9946 0001833  45.6389 314.4750 15.06394477121694","DECAY_DATE":null,"LAUNCH_DATE":"2020-03-18","ARG_OF_PERICENTER":"45.6389","COUNTRY_CODE":"US","RCS_SIZE":"LARGE","ECCENTRICITY":"0.00018330","INCLINATION":"53.0533","EPHEMERIS_TYPE":"0","MEAN_MOTION_DOT":"-0.00002059","TIME_SYSTEM":"UTC","GP_ID":"204713624","MEAN_MOTION_DDOT":"0.0000000000000"}];
